{
  "last_updated": "2026-06-04T06:00:03.794594",
  "satellites": {
    "98592": {
      "name": "DUTHSat-2",
      "norad_id": "98592",
      "tle": "1 64530U 25135C   26154.30061801  .00013879  00000-0  53281-3 0  9991\n2 64530  97.4614 270.2211 0004003 223.9212 136.1708 15.26570186 52817",
      "epoch": "2026-06-03T07:12:53.396064",
      "fetched_at": "2026-06-04T06:00:03.925263",
      "source": "satnogs"
    },
    "98530": {
      "name": "LAMARR",
      "norad_id": "98530",
      "tle": "1 66673U 25276H   26026.90917087  .00034524  00000-0  16680-2 0  9998\n2 66673  97.4301 102.8338 0007597 141.5941 218.5835 15.18529012  8972",
      "epoch": "2026-01-26T21:49:12.363168",
      "fetched_at": "2026-01-28T06:00:02.884758",
      "source": "satnogs",
      "note": "Using previous TLE (fetch/manual failed today)"
    },
    "98529": {
      "name": "DIRAC",
      "norad_id": "98529",
      "tle": "1 66681U 25276R   26026.63281774  .00024563  00000-0  11745-2 0  9993\n2 66681  97.4280 102.5712 0006320 148.4115 211.7500 15.18972786  8932",
      "epoch": "2026-01-26T15:11:15.452736",
      "fetched_at": "2026-01-28T06:00:02.937152",
      "source": "satnogs",
      "note": "Using previous TLE (fetch/manual failed today)"
    },
    "98518": {
      "name": "MICE-1",
      "norad_id": "98518",
      "tle": "1 66684U 25276U   26154.87380460  .00004829  00000-0  23329-3 0  9991\n2 66684  97.4270 228.7244 0006571  52.8066 307.3767 15.19088222 28399",
      "epoch": "2026-06-03T20:58:16.717440",
      "fetched_at": "2026-06-04T06:00:04.122118",
      "source": "satnogs"
    },
    "68416": {
      "name": "PeakSat",
      "norad_id": "68416",
      "tle": "1 68416U 26067A   26154.59099065  .00007275  00000-0  34782-3 0  9995\n2 68416  97.4545 113.3420 0001715  24.5967 335.5349 15.19299333  9884",
      "epoch": "2026-06-03T14:11:01.592160",
      "fetched_at": "2026-06-04T06:00:04.184390",
      "source": "satnogs"
    },
    "98370": {
      "name": "OptiSat",
      "norad_id": "98370",
      "tle": "1 69696U 69696    26089.46895426  .00000000  00000-0  00000-0 0 00004\n2 69696 097.4414 038.3720 0003145 156.7651 191.1423 15.18459822000011",
      "epoch": "2026-03-30T11:15:17.648064",
      "fetched_at": "2026-04-17T12:47:18.541523",
      "source": "manual"
    },
    "68468": {
      "name": "ERMIS-1",
      "norad_id": "68468",
      "tle": "1 68468U 26067BE  26153.81650679  .00009492  00000-0  47686-3 0  9990\n2 68468  97.4551 112.3995 0009005 102.4035 257.8207 15.17450899  9755",
      "epoch": "2026-06-02T19:35:46.186656",
      "fetched_at": "2026-06-04T06:00:04.242074",
      "source": "satnogs"
    },
    "68420": {
      "name": "ERMIS-2",
      "norad_id": "68420",
      "tle": "1 68420U 26067E   26154.32640999  .00010767  00000-0  51006-3 0  9997\n2 68420  97.4478 113.0333 0001301  61.8847 298.2519 15.19495776  9845",
      "epoch": "2026-06-03T07:50:01.823136",
      "fetched_at": "2026-06-04T06:00:04.300123",
      "source": "satnogs"
    },
    "98367": {
      "name": "ERMIS-3",
      "norad_id": "98367",
      "tle": "1 68425U 26067K   26152.70347977  .00006259  00000-0  30559-3 0  9993\n2 68425  97.4584 111.4621 0002974  62.8773 297.2764 15.18620478  9597",
      "epoch": "2026-06-01T16:53:00.652128",
      "fetched_at": "2026-06-04T06:00:04.355983",
      "source": "satnogs"
    },
    "69021": {
      "name": "Helios",
      "norad_id": "69021",
      "tle": "1 69021U 26100AT  26154.61131477  .00008299  00000-0  39013-3 0  9992\n2 69021  97.4038  52.6390 0006043  51.2214 308.9560 15.19823755  4746",
      "epoch": "2026-06-03T14:40:17.596128",
      "fetched_at": "2026-06-04T06:00:04.415093",
      "source": "satnogs"
    },
    "69020": {
      "name": "Selene",
      "norad_id": "69020",
      "tle": "1 69020U 26100AS  26154.94251837  .00006365  00000-0  30102-3 0  9992\n2 69020  97.4052  52.9690 0005330  47.3744 312.7940 15.19712665  4796",
      "epoch": "2026-06-03T22:37:13.587168",
      "fetched_at": "2026-06-04T06:00:04.474822",
      "source": "satnogs"
    }
  },
  "fetch_log": []
}